{
  "type": "FeatureCollection",
  "features": [
    {
      "type": "Feature",
      "properties": {
        "norad_id": 56759,
        "name": "NVS-01 (IRNSS-1J)",
        "group": "gnss",
        "lat": -1.137650905306963,
        "lon": 97.67479632451584,
        "alt_km": 35824.566511258075,
        "timestamp": "2025-12-27T15:27:11.434892+00:00",
        "meta_object_name": "NVS-01 (IRNSS-1J)",
        "meta_object_id": "2023-076A",
        "meta_epoch": "2025-12-27T06:46:11.127072",
        "meta_mean_motion": 1.00269645,
        "meta_eccentricity": 0.00090046,
        "meta_inclination": 2.5843,
        "meta_ra_of_asc_node": 251.0823,
        "meta_arg_of_pericenter": 17.9289,
        "meta_mean_anomaly": 58.1051,
        "meta_ephemeris_type": 0,
        "meta_classification_type": "U",
        "meta_norad_cat_id": 56759,
        "meta_element_set_no": 999,
        "meta_rev_at_epoch": 939,
        "meta_bstar": 0,
        "meta_mean_motion_dot": -3.12e-06,
        "meta_mean_motion_ddot": 0,
        "tle_line1": "1 56759U 23076A   25361.28207323 -.00000312  00000+0  00000+0 0  9999",
        "tle_line2": "2 56759   2.5843 251.0823 0009004  17.9289  58.1051  1.00269645  9390"
      },
      "geometry": {
        "type": "Point",
        "coordinates": [
          97.67479632451584,
          -1.137650905306963
        ]
      }
    },
    {
      "type": "Feature",
      "properties": {
        "norad_id": 57517,
        "name": "COSMOS 2569 (703K)",
        "group": "gnss",
        "lat": 60.69280884245174,
        "lon": -156.9100355355134,
        "alt_km": 19151.253629136325,
        "timestamp": "2025-12-27T15:27:11.434906+00:00",
        "meta_object_name": "COSMOS 2569 (703K)",
        "meta_object_id": "2023-114A",
        "meta_epoch": "2025-12-27T00:52:02.160768",
        "meta_mean_motion": 2.13103934,
        "meta_eccentricity": 0.00110398,
        "meta_inclination": 65.2014,
        "meta_ra_of_asc_node": 78.4304,
        "meta_arg_of_pericenter": 287.2469,
        "meta_mean_anomaly": 72.6785,
        "meta_ephemeris_type": 0,
        "meta_classification_type": "U",
        "meta_norad_cat_id": 57517,
        "meta_element_set_no": 999,
        "meta_rev_at_epoch": 1859,
        "meta_bstar": 0,
        "meta_mean_motion_dot": -1.2e-07,
        "meta_mean_motion_ddot": 0,
        "tle_line1": "1 57517U 23114A   25361.03613612 -.00000012  00000+0  00000+0 0  9997",
        "tle_line2": "2 57517  65.2014  78.4304 0011039 287.2469  72.6785  2.13103934 18597"
      },
      "geometry": {
        "type": "Point",
        "coordinates": [
          -156.9100355355134,
          60.69280884245174
        ]
      }
    },
    {
      "type": "Feature",
      "properties": {
        "norad_id": 58654,
        "name": "BEIDOU-3 M28 (C50)",
        "group": "gnss",
        "lat": 48.59687392959051,
        "lon": -162.80586259614435,
        "alt_km": 21530.295773628182,
        "timestamp": "2025-12-27T15:27:11.434917+00:00",
        "meta_object_name": "BEIDOU-3 M28 (C50)",
        "meta_object_id": "2023-207A",
        "meta_epoch": "2025-12-26T09:34:30.666720",
        "meta_mean_motion": 1.86229622,
        "meta_eccentricity": 0.0002968,
        "meta_inclination": 55.596,
        "meta_ra_of_asc_node": 68.1388,
        "meta_arg_of_pericenter": 276.5456,
        "meta_mean_anomaly": 83.472,
        "meta_ephemeris_type": 0,
        "meta_classification_type": "U",
        "meta_norad_cat_id": 58654,
        "meta_element_set_no": 999,
        "meta_rev_at_epoch": 1362,
        "meta_bstar": 0,
        "meta_mean_motion_dot": -3.3e-07,
        "meta_mean_motion_ddot": 0,
        "tle_line1": "1 58654U 23207A   25360.39896605 -.00000033  00000+0  00000+0 0  9999",
        "tle_line2": "2 58654  55.5960  68.1388 0002968 276.5456  83.4720  1.86229622 13628"
      },
      "geometry": {
        "type": "Point",
        "coordinates": [
          -162.80586259614435,
          48.59687392959051
        ]
      }
    },
    {
      "type": "Feature",
      "properties": {
        "norad_id": 58655,
        "name": "BEIDOU-3 M26 (C48)",
        "group": "gnss",
        "lat": -51.016278502542086,
        "lon": -54.16368218430096,
        "alt_km": 21521.945069979014,
        "timestamp": "2025-12-27T15:27:11.434928+00:00",
        "meta_object_name": "BEIDOU-3 M26 (C48)",
        "meta_object_id": "2023-207B",
        "meta_epoch": "2025-12-27T06:29:22.403616",
        "meta_mean_motion": 1.86231136,
        "meta_eccentricity": 0.00042923,
        "meta_inclination": 55.5988,
        "meta_ra_of_asc_node": 68.0955,
        "meta_arg_of_pericenter": 262.2645,
        "meta_mean_anomaly": 97.7357,
        "meta_ephemeris_type": 0,
        "meta_classification_type": "U",
        "meta_norad_cat_id": 58655,
        "meta_element_set_no": 999,
        "meta_rev_at_epoch": 1362,
        "meta_bstar": 0,
        "meta_mean_motion_dot": -3.8e-07,
        "meta_mean_motion_ddot": 0,
        "tle_line1": "1 58655U 23207B   25361.27039819 -.00000038  00000+0  00000+0 0  9999",
        "tle_line2": "2 58655  55.5988  68.0955 0004292 262.2645  97.7357  1.86231136 13629"
      },
      "geometry": {
        "type": "Point",
        "coordinates": [
          -54.16368218430096,
          -51.016278502542086
        ]
      }
    },
    {
      "type": "Feature",
      "properties": {
        "norad_id": 59598,
        "name": "GSAT0225 (GALILEO 29)",
        "group": "gnss",
        "lat": 48.04773746937507,
        "lon": 156.9707923680589,
        "alt_km": 23220.188335517654,
        "timestamp": "2025-12-27T15:27:11.434939+00:00",
        "meta_object_name": "GSAT0225 (GALILEO 29)",
        "meta_object_id": "2024-079A",
        "meta_epoch": "2025-12-25T18:42:53.226144",
        "meta_mean_motion": 1.70474814,
        "meta_eccentricity": 0.00021774,
        "meta_inclination": 55.0084,
        "meta_ra_of_asc_node": 105.9312,
        "meta_arg_of_pericenter": 191.4017,
        "meta_mean_anomaly": 169.7242,
        "meta_ephemeris_type": 0,
        "meta_classification_type": "U",
        "meta_norad_cat_id": 59598,
        "meta_element_set_no": 999,
        "meta_rev_at_epoch": 1036,
        "meta_bstar": 0,
        "meta_mean_motion_dot": 1.7e-07,
        "meta_mean_motion_ddot": 0,
        "tle_line1": "1 59598U 24079A   25359.77978271  .00000017  00000+0  00000+0 0  9996",
        "tle_line2": "2 59598  55.0084 105.9312 0002177 191.4017 169.7242  1.70474814 10368"
      },
      "geometry": {
        "type": "Point",
        "coordinates": [
          156.9707923680589,
          48.04773746937507
        ]
      }
    },
    {
      "type": "Feature",
      "properties": {
        "norad_id": 59600,
        "name": "GSAT0227 (GALILEO 30)",
        "group": "gnss",
        "lat": -37.072046325793174,
        "lon": 73.96734679091115,
        "alt_km": 23234.67774406175,
        "timestamp": "2025-12-27T15:27:11.434954+00:00",
        "meta_object_name": "GSAT0227 (GALILEO 30)",
        "meta_object_id": "2024-079C",
        "meta_epoch": "2025-12-21T20:31:35.455872",
        "meta_mean_motion": 1.70474868,
        "meta_eccentricity": 0.00028355,
        "meta_inclination": 55.0019,
        "meta_ra_of_asc_node": 106.0394,
        "meta_arg_of_pericenter": 117.3615,
        "meta_mean_anomaly": 242.6419,
        "meta_ephemeris_type": 0,
        "meta_classification_type": "U",
        "meta_norad_cat_id": 59600,
        "meta_element_set_no": 999,
        "meta_rev_at_epoch": 1034,
        "meta_bstar": 0,
        "meta_mean_motion_dot": 4e-08,
        "meta_mean_motion_ddot": 0,
        "tle_line1": "1 59600U 24079C   25355.85527148  .00000004  00000+0  00000+0 0  9994",
        "tle_line2": "2 59600  55.0019 106.0394 0002835 117.3615 242.6419  1.70474868 10348"
      },
      "geometry": {
        "type": "Point",
        "coordinates": [
          73.96734679091115,
          -37.072046325793174
        ]
      }
    },
    {
      "type": "Feature",
      "properties": {
        "norad_id": 61182,
        "name": "GSAT0232 (GALILEO 32)",
        "group": "gnss",
        "lat": 26.546607773689054,
        "lon": 25.73892778975316,
        "alt_km": 23215.828882603702,
        "timestamp": "2025-12-27T15:27:11.434965+00:00",
        "meta_object_name": "GSAT0232 (GALILEO 32)",
        "meta_object_id": "2024-167A",
        "meta_epoch": "2025-12-24T18:25:47.943264",
        "meta_mean_motion": 1.70473505,
        "meta_eccentricity": 0.0001887,
        "meta_inclination": 55.2374,
        "meta_ra_of_asc_node": 226.1008,
        "meta_arg_of_pericenter": 202.1814,
        "meta_mean_anomaly": 339.8736,
        "meta_ephemeris_type": 0,
        "meta_classification_type": "U",
        "meta_norad_cat_id": 61182,
        "meta_element_set_no": 999,
        "meta_rev_at_epoch": 790,
        "meta_bstar": 0,
        "meta_mean_motion_dot": 7.1e-07,
        "meta_mean_motion_ddot": 0,
        "tle_line1": "1 61182U 24167A   25358.76791601  .00000071  00000+0  00000+0 0  9994",
        "tle_line2": "2 61182  55.2374 226.1008 0001887 202.1814 339.8736  1.70473505  7904"
      },
      "geometry": {
        "type": "Point",
        "coordinates": [
          25.73892778975316,
          26.546607773689054
        ]
      }
    }
  ]
}